ORBCOMM FM33            
1 25983U 99065D   24266.86961834  .00002162  00000+0  74833-3 0  9999
2 25983  45.0275 188.5304 0007354 153.6276 206.4948 14.38402239297557
ORBCOMM FM36            
1 25984U 99065E   24266.75716074  .00002267  00000+0  81482-3 0  9996
2 25984  45.0385 276.8412 0003681 355.1392   4.9419 14.36395947295948
ORBCOMM FM35            
1 25985U 99065F   24266.43005677  .00001779  00000+0  65835-3 0  9993
2 25985  45.0394 281.5679 0001824 174.2366 185.8503 14.35753879296287
ORBCOMM FM34            
1 25986U 99065G   24267.16776264  .00002495  00000+0  90342-3 0  9999
2 25986  45.0380 278.6347 0001812  53.1675 306.9339 14.35758159296545
ORBCOMM FM38            
1 33060U 08031A   24266.97343534  .00003690  00000+0  52521-3 0  9997
2 33060  48.4393 146.5390 0005024 327.9390  32.1218 14.78741304875160
ORBCOMM FM41            
1 33061U 08031B   24267.14187911  .00003406  00000+0  49031-3 0  9990
2 33061  48.4427 152.6872 0004364 312.9440 204.9425 14.78449219875123
ORBCOMM FM29            
1 33062U 08031C   24266.97259792  .00003900  00000+0  55751-3 0  9993
2 33062  48.4381 161.5158 0006181 313.2920  60.4737 14.78422858874574
ORBCOMM FM39            
1 33063U 08031D   24267.16834837  .00004444  00000+0  64823-3 0  9999
2 33063  48.4396 182.1961 0007257 290.2584  69.7550 14.77280564874702
